STARLINK-30946          
1 58450U 23183P   25352.79689131  .00001135  00000+0  99091-4 0  9991
2 58450  43.0028 123.0627 0001244 269.6741  90.3959 15.02527628114546
STARLINK-30944          
1 58451U 23183Q   25352.68713449 -.00000636  00000+0 -32044-4 0  9992
2 58451  43.0027 123.1018 0001243 272.0532  88.0168 15.02540256114500
STARLINK-30928          
1 58452U 23183R   25352.35141204  .00000111  00000+0  23277-4 0  9995
2 58452  43.0025 124.8817 0001205 271.0016  89.0689 15.02536769114488
STARLINK-30957          
1 58453U 23183S   25352.67060004 -.00000643  00000+0 -32563-4 0  9999
2 58453  43.0028 123.8296 0001130 265.9743  94.0970 15.02535055114529
STARLINK-30966          
1 58454U 23183T   25352.86670021 -.00000155  00000+0  36319-5 0  9998
2 58454  43.0026 122.7207 0001179 272.3222  87.7485 15.02538508114554
STARLINK-30935          
1 58455U 23183U   25352.38137922 -.00000316  00000+0 -83305-5 0  9991
2 58455  43.0026 125.0984 0000605 289.0258  71.0519 15.02534185114483
STARLINK-30960          
1 58456U 23183V   25353.23981902  .00078107  00000+0  23309-2 0  9998
2 58456  42.9994  54.8701 0006279  53.0553 307.0875 15.33678929115388
STARLINK-30958          
1 58457U 23183W   25352.43231832  .00000769  00000+0  71954-4 0  9990
2 58457  43.0026 124.6264 0001297 275.5137  84.5557 15.02543887114496
STARLINK-30962          
1 58458U 23183X   25352.80678221  .00000997  00000+0  88846-4 0  9990
2 58458  43.0031 122.2787 0001403 262.7474  97.3209 15.02529938114552
STARLINK-30977          
1 58459U 23183Y   25352.71044906 -.00000659  00000+0 -33731-4 0  9998
2 58459  43.0023 123.2669 0001167 258.2690 101.8021 15.02539043114530
GNOMES-4                
1 58462U 23185A   25353.32865752  .00003566  00000+0  29609-3 0  9998
2 58462  97.5246  51.8245 0011284 164.9064 195.2499 14.99335840112325
KORSAT-7                
1 58463U 23185B   25353.31679564  .00001761  00000+0  14232-3 0  9993
2 58463  97.6317  55.9107 0021969 217.3426 142.6272 15.00929597112308
KOYOH                   
1 58464U 23185C   25353.29091187  .00005300  00000+0  28236-3 0  9992
2 58464  97.5551  61.4321 0006695 200.7293 159.3669 15.15613370112855
BANE                    
1 58465U 23185D   25353.26029870  .00042734  00000+0  61993-3 0  9999
2 58465  97.3605  67.7490 0005267 115.0517 245.1285 15.55706705114546
UHETSAT                 
1 58466U 23185E   25353.32148987  .00005716  00000+0  20921-3 0  9993
2 58466  97.3741  57.5283 0012614 225.6982 134.3224 15.28363281113799
LILIUM-1                
1 58467U 23185F   25353.30597817  .00046073  00000+0  75767-3 0  9991
2 58467  97.3517  64.5192 0006855 117.3232 242.8719 15.52214848114351
SPIRIT                  
1 58468U 23185G   25353.32410258  .00035803  00000+0  59165-3 0  9990
2 58468  97.3565  65.8451 0006948 120.3116 239.8825 15.52130467114443
ION SCV-015             
1 58469U 23185H   25353.28356515  .00005704  00000+0  19803-3 0  9993
2 58469  97.5901  72.9239 0010279  24.5044 335.6683 15.30144811113541
STARLINK-30947          
1 58473U 23186A   25353.15721949 -.00000305  00000+0 -75243-5 0  9998
2 58473  43.0029 145.3620 0001311 267.0249  93.0443 15.02534680113736
STARLINK-30995          
1 58474U 23186B   25353.33335648  .00136804  00000+0  33405-2 0  9999
2 58474  42.9978 340.2714 0010949 129.1464 286.5053 15.39570750  5725
STARLINK-30941          
1 58475U 23186C   25353.15055237 -.00000015  00000+0  13928-4 0  9998
2 58475  43.0030 145.3093 0001330 264.7819  95.2871 15.02535751113731
STARLINK-30980          
1 58476U 23186D   25352.48244598 -.00000055  00000+0  10976-4 0  9998
2 58476  43.0032 148.8941 0001326 267.1218  92.9472 15.02535356113630
STARLINK-30965          
1 58477U 23186E   25352.80066269 -.00000244  00000+0 -29827-5 0  9999
2 58477  43.0035 133.9806 0001845 277.4684  82.5949 15.02534830113838
STARLINK-30990          
1 58478U 23186F   25353.14389602 -.00000118  00000+0  63676-5 0  9996
2 58478  43.0025 145.2571 0001225 266.3347  93.7355 15.02534054113774
STARLINK-30984          
1 58480U 23186H   25352.76488597  .00000047  00000+0  18555-4 0  9994
2 58480  43.0021 146.7085 0001473 261.6883  98.3792 15.02539219113681
STARLINK-30956          
1 58481U 23186J   25352.38241666  .00000104  00000+0  22784-4 0  9990
2 58481  43.0019 124.5816 0001247 271.3833  88.6867 15.02539852113900
STARLINK-30997          
1 58482U 23186K   25352.84801571  .00005227  00000+0  40161-3 0  9998
2 58482  43.0011 146.4474 0001351 266.4157  93.6531 15.02543508113699
STARLINK-30994          
1 58483U 23186L   25353.06476253 -.00000990  00000+0 -26465-4 0  9995
2 58483  43.0027 355.4943 0000762 260.4649  99.6117 15.27570906115478
STARLINK-30991          
1 58484U 23186M   25352.76155770  .00000379  00000+0  43112-4 0  9997
2 58484  43.0028 146.6839 0001355 266.3830  93.6857 15.02535468113672
STARLINK-30979          
1 58485U 23186N   25353.13723694  .00000825  00000+0  76121-4 0  9998
2 58485  43.0030 145.2086 0001434 274.3213  85.7466 15.02541264113722
STARLINK-31005          
1 58486U 23186P   25353.13390299  .00000183  00000+0  28632-4 0  9991
2 58486  43.0026 145.1818 0001312 266.8057  93.2636 15.02535438113726
STARLINK-30987          
1 58487U 23186Q   25353.13058415 -.00000249  00000+0 -33981-5 0  9992
2 58487  43.0031 145.1563 0001313 267.9812  92.0880 15.02524895113725
STARLINK-31000          
1 58488U 23186R   25353.12724561 -.00000508  00000+0 -22513-4 0  9990
2 58488  43.0025 145.1309 0001296 273.0575  87.0119 15.02535567113728
STARLINK-30993          
1 58489U 23186S   25353.12391607 -.00000104  00000+0  73503-5 0  9999
2 58489  43.0013 145.1057 0001224 267.5814  92.4889 15.02538506113721
STARLINK-30978          
1 58490U 23186T   25352.85468654  .00004457  00000+0  34499-3 0  9990
2 58490  43.0019 146.5270 0001112 282.6774  77.3944 15.02510508113681
STARLINK-30953          
1 58491U 23186U   25353.02540873  .00000727  00000+0  35958-4 0  9993
2 58491  43.0041   3.0503 0001361 269.8643  90.2053 15.27575496115558
STARLINK-30986          
1 58492U 23186V   25352.77820916 -.00000370  00000+0 -12311-4 0  9998
2 58492  43.0021 146.8115 0001179 264.1153  95.9555 15.02533915113676
STARLINK-30985          
1 58493U 23186W   25352.77486581  .00000969  00000+0  86798-4 0  9997
2 58493  43.0025 146.7877 0001359 259.9532 100.1157 15.02544385113678
STARLINK-30981          
1 58494U 23186X   25352.43915618 -.00000012  00000+0  14215-4 0  9994
2 58494  43.0025 148.5669 0001256 268.7858  91.2840 15.02539390113627
STARLINK-31002          
1 58495U 23186Y   25352.76821454  .00000161  00000+0  27010-4 0  9996
2 58495  43.0030 146.7373 0001471 259.8214 100.2463 15.02535105113848
XINGCHI-1 02A           
1 58496U 23187A   25353.30443051  .00001377  00000+0  17377-3 0  9996
2 58496  97.9417  72.2722 0012031  18.0612 342.1027 14.83516228110447
MISRSAT-2               
1 58497U 23187B   25353.24268159  .00001120  00000+0  14559-3 0  9999
2 58497  97.9429  71.5391 0011396  19.4947 340.6700 14.82631627110377
XINGCHI-1 02B           
1 58498U 23187C   25353.30202067  .00002089  00000+0  25067-3 0  9994
2 58498  97.9445  73.0059 0010969  15.9574 344.1984 14.85070246110477
DOORY-SAT               
1 58500U 23188A   25353.31479132  .00001257  00000+0  19106-3 0  9992
2 58500  46.9813  95.0847 0009584 261.2544  98.7265 14.79978779110348
2023-189A               
1 58502U 23189A   25353.28708763  .00003816  00000+0  12820-3 0  9995
2 58502  97.4478   5.5190 0011601 171.5424 188.6015 15.31406079113666
2023-189B               
1 58503U 23189B   25353.34384639  .00039551  00000+0  47497-3 0  9998
2 58503  97.4249  16.6569 0007033 125.9388 234.2523 15.60761431114449
CHUANGXIN 19 (CX-19)    
1 58505U 23190A   25353.31010559  .00000080  00000+0  11935-3 0  9999
2 58505  86.5026  34.8053 0001527 108.9007 251.2302 13.39534168100611
STARLINK-31026          
1 58508U 23191A   25353.21754923  .00000118  00000+0  23808-4 0  9997
2 58508  43.0023 184.3242 0001193 267.9444  92.1262 15.02545133113325
STARLINK-31020          
1 58509U 23191B   25352.94842464 -.00010842  00000+0 -78756-3 0  9993
2 58509  43.0035 186.5961 0001197 259.9645 100.1062 15.02593256113270
STARLINK-30989          
1 58510U 23191C   25353.22951219  .00000382  00000+0  43354-4 0  9999
2 58510  43.0020 183.5604 0001066 261.8059  98.2662 15.02532835113362
STARLINK-30968          
1 58511U 23191D   25353.22618361 -.00000165  00000+0  28868-5 0  9992
2 58511  43.0025 183.5343 0001069 248.8619 111.2109 15.02533489113333
STARLINK-30982          
1 58512U 23191E   25353.22282782  .00002600  00000+0  20737-3 0  9997
2 58512  43.0015 183.5095 0000629 249.2512 110.8263 15.02556309113337
STARLINK-30998          
1 58513U 23191F   25353.21952955  .00000953  00000+0  85606-4 0  9999
2 58513  43.0020 183.4806 0001014 274.8087  85.2639 15.02540671113363
STARLINK-30983          
1 58514U 23191G   25353.24271209  .00000219  00000+0  31302-4 0  9998
2 58514  43.0015 182.8014 0001175 264.9065  95.1644 15.02537973112991
STARLINK-31017          
1 58515U 23191H   25353.29405395 -.00001752  00000+0 -54170-4 0  9992
2 58515  43.0007 325.1906 0001023 280.0615  80.0121 15.27569341115882
STARLINK-31028          
1 58516U 23191J   25352.94592290  .00002737  00000+0  22217-3 0  9993
2 58516  43.0008 184.8690 0001618 202.0777 157.9996 15.01733344113292
STARLINK-31011          
1 58517U 23191K   25352.88380530 -.00000124  00000+0  58865-5 0  9998
2 58517  43.0017 185.2618 0001060 259.3004 100.7719 15.02532270113281
STARLINK-31021          
1 58518U 23191L   25353.23272200  .00000086  00000+0  21402-4 0  9995
2 58518  43.0022 182.7055 0001213 231.8069 128.2664 15.02535004113340
STARLINK-31010          
1 58519U 23191M   25352.97013079 -.00002147  00000+0 -14391-3 0  9993
2 58519  43.0023 184.1429 0002220 257.3322 102.7273 15.02531727113304
